[
  {
    "OBJECT_NAME": "STARLINK-2029",
    "OBJECT_ID": "21036AW",
    "EPOCH": "2025-11-11T06:56:17.123712",
    "MEAN_MOTION": 15.06399853,
    "ECCENTRICITY": 0.0001452,
    "INCLINATION": 53.0551,
    "RA_OF_ASC_NODE": 273.1372,
    "ARG_OF_PERICENTER": 95.554,
    "MEAN_ANOMALY": 264.5615,
    "EPHEMERIS_TYPE": 0,
    "CLASSIFICATION_TYPE": "U",
    "NORAD_CAT_ID": 48320,
    "ELEMENT_SET_NO": 999,
    "REV_AT_EPOCH": 25018,
    "BSTAR": 0.00022972999999999998,
    "MEAN_MOTION_DOT": 3.142e-05,
    "MEAN_MOTION_DDOT": 0.0,
    "TLE_LINE1": "1 48320U 21036AW  25315.28908708  .00003142  00000+0  22973-3 0  9992",
    "TLE_LINE2": "2 48320  53.0551 273.1372 0001452  95.5540 264.5615 15.06399853250187",
    "COMMENT": "Grouped by shell and plane from TLE"
  },
  {
    "OBJECT_NAME": "STARLINK-2457",
    "OBJECT_ID": "21036AX",
    "EPOCH": "2025-11-11T06:50:59.116416",
    "MEAN_MOTION": 15.06396954,
    "ECCENTRICITY": 0.0001607,
    "INCLINATION": 53.0545,
    "RA_OF_ASC_NODE": 273.1585,
    "ARG_OF_PERICENTER": 90.6381,
    "MEAN_ANOMALY": 269.4792,
    "EPHEMERIS_TYPE": 0,
    "CLASSIFICATION_TYPE": "U",
    "NORAD_CAT_ID": 48321,
    "ELEMENT_SET_NO": 999,
    "REV_AT_EPOCH": 25018,
    "BSTAR": 0.00012272,
    "MEAN_MOTION_DOT": 1.547e-05,
    "MEAN_MOTION_DDOT": 0.0,
    "TLE_LINE1": "1 48321U 21036AX  25315.28540644  .00001547  00000+0  12272-3 0  9992",
    "TLE_LINE2": "2 48321  53.0545 273.1585 0001607  90.6381 269.4792 15.06396954250187",
    "COMMENT": "Grouped by shell and plane from TLE"
  },
  {
    "OBJECT_NAME": "STARLINK-2515",
    "OBJECT_ID": "21036AZ",
    "EPOCH": "2025-11-11T05:04:49.841472",
    "MEAN_MOTION": 15.063917,
    "ECCENTRICITY": 0.0001204,
    "INCLINATION": 53.0549,
    "RA_OF_ASC_NODE": 273.4876,
    "ARG_OF_PERICENTER": 81.3217,
    "MEAN_ANOMALY": 278.7908,
    "EPHEMERIS_TYPE": 0,
    "CLASSIFICATION_TYPE": "U",
    "NORAD_CAT_ID": 48323,
    "ELEMENT_SET_NO": 999,
    "REV_AT_EPOCH": 25017,
    "BSTAR": 0.00016003,
    "MEAN_MOTION_DOT": 2.102e-05,
    "MEAN_MOTION_DDOT": 0.0,
    "TLE_LINE1": "1 48323U 21036AZ  25315.21168798  .00002102  00000+0  16003-3 0  9997",
    "TLE_LINE2": "2 48323  53.0549 273.4876 0001204  81.3217 278.7908 15.06391700250172",
    "COMMENT": "Grouped by shell and plane from TLE"
  },
  {
    "OBJECT_NAME": "STARLINK-2495",
    "OBJECT_ID": "21036BB",
    "EPOCH": "2025-11-11T04:54:11.977920",
    "MEAN_MOTION": 15.06388358,
    "ECCENTRICITY": 0.0001443,
    "INCLINATION": 53.0543,
    "RA_OF_ASC_NODE": 273.5185,
    "ARG_OF_PERICENTER": 93.7069,
    "MEAN_ANOMALY": 266.4085,
    "EPHEMERIS_TYPE": 0,
    "CLASSIFICATION_TYPE": "U",
    "NORAD_CAT_ID": 48325,
    "ELEMENT_SET_NO": 999,
    "REV_AT_EPOCH": 25017,
    "BSTAR": 0.0002495,
    "MEAN_MOTION_DOT": 3.436e-05,
    "MEAN_MOTION_DDOT": 0.0,
    "TLE_LINE1": "1 48325U 21036BB  25315.20430530  .00003436  00000+0  24950-3 0  9995",
    "TLE_LINE2": "2 48325  53.0543 273.5185 0001443  93.7069 266.4085 15.06388358250174",
    "COMMENT": "Grouped by shell and plane from TLE"
  },
  {
    "OBJECT_NAME": "STARLINK-2498",
    "OBJECT_ID": "21036BC",
    "EPOCH": "2025-11-11T06:24:26.188128",
    "MEAN_MOTION": 15.06394469,
    "ECCENTRICITY": 0.0001423,
    "INCLINATION": 53.0552,
    "RA_OF_ASC_NODE": 273.2401,
    "ARG_OF_PERICENTER": 88.5927,
    "MEAN_ANOMALY": 271.5225,
    "EPHEMERIS_TYPE": 0,
    "CLASSIFICATION_TYPE": "U",
    "NORAD_CAT_ID": 48326,
    "ELEMENT_SET_NO": 999,
    "REV_AT_EPOCH": 25018,
    "BSTAR": 0.00033703,
    "MEAN_MOTION_DOT": 4.741e-05,
    "MEAN_MOTION_DDOT": 0.0,
    "TLE_LINE1": "1 48326U 21036BC  25315.26696977  .00004741  00000+0  33703-3 0  9997",
    "TLE_LINE2": "2 48326  53.0552 273.2401 0001423  88.5927 271.5225 15.06394469250180",
    "COMMENT": "Grouped by shell and plane from TLE"
  },
  {
    "OBJECT_NAME": "STARLINK-2502",
    "OBJECT_ID": "21036BD",
    "EPOCH": "2025-11-11T06:19:07.724640",
    "MEAN_MOTION": 15.06393006,
    "ECCENTRICITY": 0.0001585,
    "INCLINATION": 53.0547,
    "RA_OF_ASC_NODE": 273.2534,
    "ARG_OF_PERICENTER": 94.487,
    "MEAN_ANOMALY": 265.63,
    "EPHEMERIS_TYPE": 0,
    "CLASSIFICATION_TYPE": "U",
    "NORAD_CAT_ID": 48327,
    "ELEMENT_SET_NO": 999,
    "REV_AT_EPOCH": 25018,
    "BSTAR": 9.489800000000001e-05,
    "MEAN_MOTION_DOT": 1.132e-05,
    "MEAN_MOTION_DDOT": 0.0,
    "TLE_LINE1": "1 48327U 21036BD  25315.26328385  .00001132  00000+0  94898-4 0  9997",
    "TLE_LINE2": "2 48327  53.0547 273.2534 0001585  94.4870 265.6300 15.06393006250188",
    "COMMENT": "Grouped by shell and plane from TLE"
  },
  {
    "OBJECT_NAME": "STARLINK-2504",
    "OBJECT_ID": "21036BE",
    "EPOCH": "2025-11-11T04:38:17.757312",
    "MEAN_MOTION": 15.06404753,
    "ECCENTRICITY": 0.0001176,
    "INCLINATION": 53.0533,
    "RA_OF_ASC_NODE": 273.5685,
    "ARG_OF_PERICENTER": 83.3884,
    "MEAN_ANOMALY": 276.7239,
    "EPHEMERIS_TYPE": 0,
    "CLASSIFICATION_TYPE": "U",
    "NORAD_CAT_ID": 48328,
    "ELEMENT_SET_NO": 999,
    "REV_AT_EPOCH": 25017,
    "BSTAR": 0.00058023,
    "MEAN_MOTION_DOT": 8.373e-05,
    "MEAN_MOTION_DDOT": 0.0,
    "TLE_LINE1": "1 48328U 21036BE  25315.19326108  .00008373  00000+0  58023-3 0  9994",
    "TLE_LINE2": "2 48328  53.0533 273.5685 0001176  83.3884 276.7239 15.06404753250177",
    "COMMENT": "Grouped by shell and plane from TLE"
  },
  {
    "OBJECT_NAME": "STARLINK-2510",
    "OBJECT_ID": "21036BF",
    "EPOCH": "2025-11-11T04:32:58.866144",
    "MEAN_MOTION": 15.06389618,
    "ECCENTRICITY": 0.0001523,
    "INCLINATION": 53.0561,
    "RA_OF_ASC_NODE": 273.5915,
    "ARG_OF_PERICENTER": 100.8906,
    "MEAN_ANOMALY": 259.2254,
    "EPHEMERIS_TYPE": 0,
    "CLASSIFICATION_TYPE": "U",
    "NORAD_CAT_ID": 48329,
    "ELEMENT_SET_NO": 999,
    "REV_AT_EPOCH": 25017,
    "BSTAR": 1.3478000000000002e-05,
    "MEAN_MOTION_DOT": -8.1e-07,
    "MEAN_MOTION_DDOT": 0.0,
    "TLE_LINE1": "1 48329U 21036BF  25315.18957021 -.00000081  00000+0  13478-4 0  9993",
    "TLE_LINE2": "2 48329  53.0561 273.5915 0001523 100.8906 259.2254 15.06389618250176",
    "COMMENT": "Grouped by shell and plane from TLE"
  },
  {
    "OBJECT_NAME": "STARLINK-2501",
    "OBJECT_ID": "21036BG",
    "EPOCH": "2025-11-11T04:27:38.884608",
    "MEAN_MOTION": 15.06396436,
    "ECCENTRICITY": 0.0001764,
    "INCLINATION": 53.0557,
    "RA_OF_ASC_NODE": 273.6034,
    "ARG_OF_PERICENTER": 92.3413,
    "MEAN_ANOMALY": 267.7778,
    "EPHEMERIS_TYPE": 0,
    "CLASSIFICATION_TYPE": "U",
    "NORAD_CAT_ID": 48330,
    "ELEMENT_SET_NO": 999,
    "REV_AT_EPOCH": 25017,
    "BSTAR": 0.0,
    "MEAN_MOTION_DOT": -3.075e-05,
    "MEAN_MOTION_DDOT": 0.0,
    "TLE_LINE1": "1 48330U 21036BG  25315.18586672 -.00003075  00000+0 -18766-3 0  9996",
    "TLE_LINE2": "2 48330  53.0557 273.6034 0001764  92.3413 267.7778 15.06396436250172",
    "COMMENT": "Grouped by shell and plane from TLE"
  },
  {
    "OBJECT_NAME": "STARLINK-2514",
    "OBJECT_ID": "21036BH",
    "EPOCH": "2025-11-11T02:46:49.988640",
    "MEAN_MOTION": 15.06371219,
    "ECCENTRICITY": 0.0001346,
    "INCLINATION": 53.0532,
    "RA_OF_ASC_NODE": 273.914,
    "ARG_OF_PERICENTER": 87.7878,
    "MEAN_ANOMALY": 272.3265,
    "EPHEMERIS_TYPE": 0,
    "CLASSIFICATION_TYPE": "U",
    "NORAD_CAT_ID": 48331,
    "ELEMENT_SET_NO": 999,
    "REV_AT_EPOCH": 25016,
    "BSTAR": 0.0,
    "MEAN_MOTION_DOT": -3.464e-05,
    "MEAN_MOTION_DDOT": 0.0,
    "TLE_LINE1": "1 48331U 21036BH  25315.11585635 -.00003464  00000+0 -21393-3 0  9990",
    "TLE_LINE2": "2 48331  53.0532 273.9140 0001346  87.7878 272.3265 15.06371219250160",
    "COMMENT": "Grouped by shell and plane from TLE"
  },
  {
    "OBJECT_NAME": "STARLINK-2518",
    "OBJECT_ID": "21036BK",
    "EPOCH": "2025-11-11T04:11:44.203488",
    "MEAN_MOTION": 15.06402179,
    "ECCENTRICITY": 0.0001367,
    "INCLINATION": 53.0545,
    "RA_OF_ASC_NODE": 273.6477,
    "ARG_OF_PERICENTER": 108.7247,
    "MEAN_ANOMALY": 251.389,
    "EPHEMERIS_TYPE": 0,
    "CLASSIFICATION_TYPE": "U",
    "NORAD_CAT_ID": 48333,
    "ELEMENT_SET_NO": 999,
    "REV_AT_EPOCH": 25017,
    "BSTAR": 0.00026211,
    "MEAN_MOTION_DOT": 3.625e-05,
    "MEAN_MOTION_DDOT": 0.0,
    "TLE_LINE1": "1 48333U 21036BK  25315.17481717  .00003625  00000+0  26211-3 0  9995",
    "TLE_LINE2": "2 48333  53.0545 273.6477 0001367 108.7247 251.3890 15.06402179250175",
    "COMMENT": "Grouped by shell and plane from TLE"
  },
  {
    "OBJECT_NAME": "STARLINK-2470",
    "OBJECT_ID": "21036BL",
    "EPOCH": "2025-11-11T04:06:26.657568",
    "MEAN_MOTION": 15.06408264,
    "ECCENTRICITY": 0.000133,
    "INCLINATION": 53.0549,
    "RA_OF_ASC_NODE": 273.6668,
    "ARG_OF_PERICENTER": 101.4706,
    "MEAN_ANOMALY": 258.6432,
    "EPHEMERIS_TYPE": 0,
    "CLASSIFICATION_TYPE": "U",
    "NORAD_CAT_ID": 48334,
    "ELEMENT_SET_NO": 999,
    "REV_AT_EPOCH": 25017,
    "BSTAR": 0.00021902,
    "MEAN_MOTION_DOT": 2.983e-05,
    "MEAN_MOTION_DDOT": 0.0,
    "TLE_LINE1": "1 48334U 21036BL  25315.17114187  .00002983  00000+0  21902-3 0  9998",
    "TLE_LINE2": "2 48334  53.0549 273.6668 0001330 101.4706 258.6432 15.06408264250175",
    "COMMENT": "Grouped by shell and plane from TLE"
  },
  {
    "OBJECT_NAME": "STARLINK-2225",
    "OBJECT_ID": "21041X",
    "EPOCH": "2025-11-11T06:35:04.777440",
    "MEAN_MOTION": 15.06389463,
    "ECCENTRICITY": 0.0001335,
    "INCLINATION": 53.0551,
    "RA_OF_ASC_NODE": 273.2881,
    "ARG_OF_PERICENTER": 84.5503,
    "MEAN_ANOMALY": 275.5638,
    "EPHEMERIS_TYPE": 0,
    "CLASSIFICATION_TYPE": "U",
    "NORAD_CAT_ID": 48574,
    "ELEMENT_SET_NO": 999,
    "REV_AT_EPOCH": 24777,
    "BSTAR": 0.00021834,
    "MEAN_MOTION_DOT": 2.971e-05,
    "MEAN_MOTION_DDOT": 0.0,
    "TLE_LINE1": "1 48574U 21041X   25315.27436085  .00002971  00000+0  21834-3 0  9996",
    "TLE_LINE2": "2 48574  53.0551 273.2881 0001335  84.5503 275.5638 15.06389463247775",
    "COMMENT": "Grouped by shell and plane from TLE"
  }
]